[{"OBJECT_NAME":"STARLINK-35133","OBJECT_ID":"2025-200R","EPOCH":"2026-03-09T18:10:28.645536","MEAN_MOTION":15.05660939,"ECCENTRICITY":2.492e-5,"INCLINATION":97.6015,"RA_OF_ASC_NODE":139.905,"ARG_OF_PERICENTER":127.2074,"MEAN_ANOMALY":232.9175,"EPHEMERIS_TYPE":0,"CLASSIFICATION_TYPE":"U","NORAD_CAT_ID":65535,"ELEMENT_SET_NO":999,"REV_AT_EPOCH":2914,"BSTAR":0.00021803738,"MEAN_MOTION_DOT":3.088e-5,"MEAN_MOTION_DDOT":0},{"OBJECT_NAME":"NOAA 16 DEB","OBJECT_ID":"2000-055BZ","EPOCH":"2026-03-09T09:57:46.840608","MEAN_MOTION":15.04968987,"ECCENTRICITY":0.00133628,"INCLINATION":98.8453,"RA_OF_ASC_NODE":286.076,"ARG_OF_PERICENTER":194.204,"MEAN_ANOMALY":165.8809,"EPHEMERIS_TYPE":0,"CLASSIFICATION_TYPE":"U","NORAD_CAT_ID":41142,"ELEMENT_SET_NO":999,"REV_AT_EPOCH":53866,"BSTAR":0.0051237154,"MEAN_MOTION_DOT":0.00073426,"MEAN_MOTION_DDOT":0}]
